KUIPER-00114            
1 65151U 25171V   26187.71365399 -.00000967  00000+0 -97889-4 0  9999
2 65151  51.8991   9.2712 0000844 114.1616 245.9435 14.79923588 50261
KUIPER-00115            
1 65152U 25171W   26187.72174397  .00000771  00000+0  13018-3 0  9999
2 65152  51.9007   1.7347 0000364 120.0117 240.0881 14.79926597 50377
KUIPER-00116            
1 65153U 25171X   26187.75011634 -.00001267  00000+0 -13731-3 0  9992
2 65153  51.8998   6.6456 0000802 105.6742 254.4309 14.79920687 50302
KUIPER-00118            
1 65154U 25171Y   26187.67983139  .00000114  00000+0  44008-4 0  9992
2 65154  51.9019   9.4088 0000744  88.0023 272.1024 14.79899449 50268
KUIPER-00119            
1 65155U 25171Z   26187.76091378 -.00013104  00000+0 -16924-2 0  9997
2 65155  51.9034 356.6444 0000264 162.3621 197.7351 14.79954089 50443
KUIPER-00120            
1 65762U 25217A   26187.38994898  .00002535  00000+0  36139-3 0  9994
2 65762  51.8975 248.1650 0000541  92.6638 267.4386 14.79935709 42313
KUIPER-00132            
1 65763U 25217B   26187.25368055  .00037025  00000+0  82706-3 0  9994
2 65763  51.8539 146.3355 0007263  34.7047 325.4415 15.43141441 43717
KUIPER-00133            
1 65764U 25217C   26187.35619582  .00000809  00000+0  13514-3 0  9991
2 65764  51.9018 248.4176 0000534 102.9790 257.1232 14.79934367 42311
KUIPER-00139            
1 65765U 25217D   26187.32371540 -.00000011  00000+0  27545-4 0  9994
2 65765  51.8972 216.0251 0000603  76.2042 283.8987 14.79928824 42768
KUIPER-00142            
1 65766U 25217E   26187.34129310  .00000523  00000+0  97640-4 0  9993
2 65766  51.8983 230.9079 0000507  91.9358 268.1662 14.79925743 42551
KUIPER-00145            
1 65767U 25217F   26187.33855709 -.00007006  00000+0 -89106-3 0  9993
2 65767  51.8979 233.4397 0000860  91.6479 268.4582 14.79924322 42513
KUIPER-00147            
1 65768U 25217G   26187.43720697 -.00000444  00000+0 -29263-4 0  9990
2 65768  51.8971 235.4853 0000600  88.5903 271.5128 14.79925779 42499
KUIPER-00148            
1 65769U 25217H   26187.30444646  .00001931  00000+0  30779-3 0  9997
2 65769  51.9033 218.4108 0000840 293.3868  66.7005 14.76122450 42722
KUIPER-00150            
1 65770U 25217J   26187.35889199  .00003076  00000+0  43230-3 0  9998
2 65770  51.9000 245.8651 0000519  92.6754 267.4267 14.79933882 42342
KUIPER-00151            
1 65771U 25217K   26187.43450958 -.00000735  00000+0 -67440-4 0  9996
2 65771  51.8995 238.0286 0000488  83.6454 276.4564 14.79928689 42467
KUIPER-00152            
1 65772U 25217L   26187.48175157  .00001890  00000+0  27678-3 0  9996
2 65772  51.8988 225.3034 0000462  86.0223 274.0793 14.79936385 42643
