{"fetched_at":"2026-07-07T07:58:09.009Z","source":"https://celestrak.org/NORAD/elements/gp.php?GROUP=kuiper&FORMAT=JSON","constellation":"kuiper","records":[{"OBJECT_NAME":"KUIPER-00114","OBJECT_ID":"2025-171V","EPOCH":"2026-07-06T17:07:39.704736","CLASSIFICATION_TYPE":"U","MEAN_MOTION":14.79923588,"ECCENTRICITY":0.0000844,"INCLINATION":51.8991,"RA_OF_ASC_NODE":9.2712,"ARG_OF_PERICENTER":114.1616,"MEAN_ANOMALY":245.9435,"EPHEMERIS_TYPE":0,"NORAD_CAT_ID":65151,"ELEMENT_SET_NO":999,"REV_AT_EPOCH":5026,"BSTAR":-0.000097889,"MEAN_MOTION_DOT":-0.00000967,"MEAN_MOTION_DDOT":0},{"OBJECT_NAME":"KUIPER-00115","OBJECT_ID":"2025-171W","EPOCH":"2026-07-06T17:19:18.679008","CLASSIFICATION_TYPE":"U","MEAN_MOTION":14.79926597,"ECCENTRICITY":0.0000364,"INCLINATION":51.9007,"RA_OF_ASC_NODE":1.7347,"ARG_OF_PERICENTER":120.0117,"MEAN_ANOMALY":240.0881,"EPHEMERIS_TYPE":0,"NORAD_CAT_ID":65152,"ELEMENT_SET_NO":999,"REV_AT_EPOCH":5037,"BSTAR":0.00013018,"MEAN_MOTION_DOT":0.00000771,"MEAN_MOTION_DDOT":0},{"OBJECT_NAME":"KUIPER-00116","OBJECT_ID":"2025-171X","EPOCH":"2026-07-06T18:00:10.051776","CLASSIFICATION_TYPE":"U","MEAN_MOTION":14.79920687,"ECCENTRICITY":0.0000802,"INCLINATION":51.8998,"RA_OF_ASC_NODE":6.6456,"ARG_OF_PERICENTER":105.6742,"MEAN_ANOMALY":254.4309,"EPHEMERIS_TYPE":0,"NORAD_CAT_ID":65153,"ELEMENT_SET_NO":999,"REV_AT_EPOCH":5030,"BSTAR":-0.00013731,"MEAN_MOTION_DOT":-0.00001267,"MEAN_MOTION_DDOT":0},{"OBJECT_NAME":"KUIPER-00118","OBJECT_ID":"2025-171Y","EPOCH":"2026-07-06T16:18:57.432096","CLASSIFICATION_TYPE":"U","MEAN_MOTION":14.79899449,"ECCENTRICITY":0.0000744,"INCLINATION":51.9019,"RA_OF_ASC_NODE":9.4088,"ARG_OF_PERICENTER":88.0023,"MEAN_ANOMALY":272.1024,"EPHEMERIS_TYPE":0,"NORAD_CAT_ID":65154,"ELEMENT_SET_NO":999,"REV_AT_EPOCH":5026,"BSTAR":0.000044008,"MEAN_MOTION_DOT":0.00000114,"MEAN_MOTION_DDOT":0},{"OBJECT_NAME":"KUIPER-00119","OBJECT_ID":"2025-171Z","EPOCH":"2026-07-06T18:15:42.950592","CLASSIFICATION_TYPE":"U","MEAN_MOTION":14.79954089,"ECCENTRICITY":0.0000264,"INCLINATION":51.9034,"RA_OF_ASC_NODE":356.6444,"ARG_OF_PERICENTER":162.3621,"MEAN_ANOMALY":197.7351,"EPHEMERIS_TYPE":0,"NORAD_CAT_ID":65155,"ELEMENT_SET_NO":999,"REV_AT_EPOCH":5044,"BSTAR":-0.0016924,"MEAN_MOTION_DOT":-0.00013104,"MEAN_MOTION_DDOT":0},{"OBJECT_NAME":"KUIPER-00120","OBJECT_ID":"2025-217A","EPOCH":"2026-07-06T09:21:31.591872","CLASSIFICATION_TYPE":"U","MEAN_MOTION":14.79935709,"ECCENTRICITY":0.0000541,"INCLINATION":51.8975,"RA_OF_ASC_NODE":248.165,"ARG_OF_PERICENTER":92.6638,"MEAN_ANOMALY":267.4386,"EPHEMERIS_TYPE":0,"NORAD_CAT_ID":65762,"ELEMENT_SET_NO":999,"REV_AT_EPOCH":4231,"BSTAR":0.00036139,"MEAN_MOTION_DOT":0.00002535,"MEAN_MOTION_DDOT":0},{"OBJECT_NAME":"KUIPER-00132","OBJECT_ID":"2025-217B","EPOCH":"2026-07-06T06:05:17.999520","CLASSIFICATION_TYPE":"U","MEAN_MOTION":15.43141441,"ECCENTRICITY":0.00072635,"INCLINATION":51.8539,"RA_OF_ASC_NODE":146.3355,"ARG_OF_PERICENTER":34.7047,"MEAN_ANOMALY":325.4415,"EPHEMERIS_TYPE":0,"NORAD_CAT_ID":65763,"ELEMENT_SET_NO":999,"REV_AT_EPOCH":4371,"BSTAR":0.00082705522,"MEAN_MOTION_DOT":0.00037025,"MEAN_MOTION_DDOT":0},{"OBJECT_NAME":"KUIPER-00133","OBJECT_ID":"2025-217C","EPOCH":"2026-07-06T08:32:55.318848","CLASSIFICATION_TYPE":"U","MEAN_MOTION":14.79934367,"ECCENTRICITY":0.00005342,"INCLINATION":51.9018,"RA_OF_ASC_NODE":248.4176,"ARG_OF_PERICENTER":102.979,"MEAN_ANOMALY":257.1232,"EPHEMERIS_TYPE":0,"NORAD_CAT_ID":65764,"ELEMENT_SET_NO":999,"REV_AT_EPOCH":4231,"BSTAR":0.00013514499,"MEAN_MOTION_DOT":0.00000809,"MEAN_MOTION_DDOT":0},{"OBJECT_NAME":"KUIPER-00139","OBJECT_ID":"2025-217D","EPOCH":"2026-07-06T07:46:09.010560","CLASSIFICATION_TYPE":"U","MEAN_MOTION":14.79928824,"ECCENTRICITY":0.00006036,"INCLINATION":51.8972,"RA_OF_ASC_NODE":216.0251,"ARG_OF_PERICENTER":76.2042,"MEAN_ANOMALY":283.8987,"EPHEMERIS_TYPE":0,"NORAD_CAT_ID":65765,"ELEMENT_SET_NO":999,"REV_AT_EPOCH":4276,"BSTAR":0.000027544622,"MEAN_MOTION_DOT":-1.1e-7,"MEAN_MOTION_DDOT":0},{"OBJECT_NAME":"KUIPER-00142","OBJECT_ID":"2025-217E","EPOCH":"2026-07-06T08:11:27.723840","CLASSIFICATION_TYPE":"U","MEAN_MOTION":14.79925743,"ECCENTRICITY":0.00005074,"INCLINATION":51.8983,"RA_OF_ASC_NODE":230.9079,"ARG_OF_PERICENTER":91.9358,"MEAN_ANOMALY":268.1662,"EPHEMERIS_TYPE":0,"NORAD_CAT_ID":65766,"ELEMENT_SET_NO":999,"REV_AT_EPOCH":4255,"BSTAR":0.000097640017,"MEAN_MOTION_DOT":0.00000523,"MEAN_MOTION_DDOT":0},{"OBJECT_NAME":"KUIPER-00145","OBJECT_ID":"2025-217F","EPOCH":"2026-07-06T08:07:31.332576","CLASSIFICATION_TYPE":"U","MEAN_MOTION":14.79924322,"ECCENTRICITY":0.00008609,"INCLINATION":51.8979,"RA_OF_ASC_NODE":233.4397,"ARG_OF_PERICENTER":91.6479,"MEAN_ANOMALY":268.4582,"EPHEMERIS_TYPE":0,"NORAD_CAT_ID":65767,"ELEMENT_SET_NO":999,"REV_AT_EPOCH":4251,"BSTAR":-0.00089106211,"MEAN_MOTION_DOT":-0.00007006,"MEAN_MOTION_DDOT":0},{"OBJECT_NAME":"KUIPER-00147","OBJECT_ID":"2025-217G","EPOCH":"2026-07-06T10:29:34.682208","CLASSIFICATION_TYPE":"U","MEAN_MOTION":14.79925779,"ECCENTRICITY":0.00006,"INCLINATION":51.8971,"RA_OF_ASC_NODE":235.4853,"ARG_OF_PERICENTER":88.5903,"MEAN_ANOMALY":271.5128,"EPHEMERIS_TYPE":0,"NORAD_CAT_ID":65768,"ELEMENT_SET_NO":999,"REV_AT_EPOCH":4249,"BSTAR":-0.000029263,"MEAN_MOTION_DOT":-0.00000444,"MEAN_MOTION_DDOT":0},{"OBJECT_NAME":"KUIPER-00148","OBJECT_ID":"2025-217H","EPOCH":"2026-07-06T07:18:24.174144","CLASSIFICATION_TYPE":"U","MEAN_MOTION":14.7612245,"ECCENTRICITY":0.00008404,"INCLINATION":51.9033,"RA_OF_ASC_NODE":218.4108,"ARG_OF_PERICENTER":293.3868,"MEAN_ANOMALY":66.7005,"EPHEMERIS_TYPE":0,"NORAD_CAT_ID":65769,"ELEMENT_SET_NO":999,"REV_AT_EPOCH":4272,"BSTAR":0.00030779395,"MEAN_MOTION_DOT":0.00001931,"MEAN_MOTION_DDOT":0},{"OBJECT_NAME":"KUIPER-00150","OBJECT_ID":"2025-217J","EPOCH":"2026-07-06T08:36:48.267936","CLASSIFICATION_TYPE":"U","MEAN_MOTION":14.79933882,"ECCENTRICITY":0.00005192,"INCLINATION":51.9,"RA_OF_ASC_NODE":245.8651,"ARG_OF_PERICENTER":92.6754,"MEAN_ANOMALY":267.4267,"EPHEMERIS_TYPE":0,"NORAD_CAT_ID":65770,"ELEMENT_SET_NO":999,"REV_AT_EPOCH":4234,"BSTAR":0.00043229786,"MEAN_MOTION_DOT":0.00003076,"MEAN_MOTION_DDOT":0},{"OBJECT_NAME":"KUIPER-00151","OBJECT_ID":"2025-217K","EPOCH":"2026-07-06T10:25:41.627712","CLASSIFICATION_TYPE":"U","MEAN_MOTION":14.79928689,"ECCENTRICITY":0.0000488,"INCLINATION":51.8995,"RA_OF_ASC_NODE":238.0286,"ARG_OF_PERICENTER":83.6454,"MEAN_ANOMALY":276.4564,"EPHEMERIS_TYPE":0,"NORAD_CAT_ID":65771,"ELEMENT_SET_NO":999,"REV_AT_EPOCH":4246,"BSTAR":-0.00006744,"MEAN_MOTION_DOT":-0.00000735,"MEAN_MOTION_DDOT":0},{"OBJECT_NAME":"KUIPER-00152","OBJECT_ID":"2025-217L","EPOCH":"2026-07-06T11:33:43.335648","CLASSIFICATION_TYPE":"U","MEAN_MOTION":14.79936385,"ECCENTRICITY":0.00004623,"INCLINATION":51.8988,"RA_OF_ASC_NODE":225.3034,"ARG_OF_PERICENTER":86.0223,"MEAN_ANOMALY":274.0793,"EPHEMERIS_TYPE":0,"NORAD_CAT_ID":65772,"ELEMENT_SET_NO":999,"REV_AT_EPOCH":4264,"BSTAR":0.00027678,"MEAN_MOTION_DOT":0.0000189,"MEAN_MOTION_DDOT":0}]}
